#dP2022 10  9  0  0  0.00000000      97 __u+U IGS14 FIT  IAC
## 2231      0.00000000   900.00000000 59861 0.0000000000000
+  118   C06C07C08C09C10C11C12C13C14C16C19C20C21C22C23C24C25
+        C26C27C28C29C30C32C33C34C35C36C37C38C39C40C41C42C43
+        C44C45C46E01E02E03E04E05E07E08E09E10E11E12E13E14E15
+        E18E19E21E24E25E26E27E30E31E33E34E36G01G02G03G04G05
+        G06G07G08G09G10G11G12G13G14G15G16G17G18G19G20G21G22
+        G23G24G25G26G27G28G29G30G31G32J02J03J04R01R02R03R04
+        R05R07R08R09R11R12R13R14R15R17R18R19R20R21R22R24  0
++         7  7  7  7  7  7  6  7  7  7  5  5  6  5  6  6  6
++         6  6  6  6  6  6  6  5  5  6  6  7  6  6  6  6  6
++         5  6  6  5  4  4  5  4  4  4  4  4  4  4  4  5  4
++         4  4  4  4  4  4  4  4  5  4  4  4  3  4  3  3  3
++         3  4  3  3  3  3  3  3  3  3  3  3  3  3  3  3  3
++         3  4  3  3  3  4  3  4  3  3  9  9 10  7  6  6  6
++         6  6  6  6  6  6  7  6  6  6  6  7  7  6  9  6  0
%c M  cc GPS ccc cccc cccc cccc cccc ccccc ccccc ccccc ccccc
%c cc cc ccc ccc cccc cccc cccc cccc ccccc ccccc ccccc ccccc
%f  1.2500000  1.025000000  0.00000000000  0.000000000000000
%f  0.0000000  0.000000000  0.00000000000  0.000000000000000
%i    0    0    0    0      0      0      0      0         0
%i    0    0    0    0      0      0      0      0         0
/* INFORMATION & ANALYSIS CENTER (IAC)            FINAL DATA
/* S/V CLOCKS ARE ALIGNED TO GNSS TIME                      
/* G:C1WC2W R:C1PC2P E:C1XC5X C:C2IC6I J:C1CC2S             
/* PCV:IGS14_2218 OL/AL:FES2004  NONE     YN ORB:CoN CLK:CoN
*  2022 10 09 19 45  0.00000000
PC06  -2412.931801  27824.129254 -31519.632507    900.043539
PC07 -17719.891433  30432.219343  23126.445930   -254.092322
PC08  -9698.280310  40648.289211   6317.424187    490.822117
PC09   6756.957069  31849.336341 -26149.422916   -839.528936
PC10  -9346.098930  30537.355967  27607.340614     85.954504
PC11 -15286.666976 -20166.995992 -11648.358398   -360.971142
PC12   2186.855942 -16436.287198 -22400.248873   -488.392616
PC13  -4148.488583  42083.703272  -1669.212636    102.547325
PC14  -7000.408349 -14204.273903  22987.258657    558.677793
PC16  -6392.231486  24871.596969 -33208.074782    130.818310
PC19  16438.997829   7906.377567 -21107.185910   -839.231600
PC20  -1580.076530  17444.350047 -21715.347095    868.064428
PC21  20015.379214 -17125.974316   9242.977525   -568.821028
PC22  25832.929382  -6588.623082  -8292.303892   -860.141014
PC23 -16354.820304   1784.260318 -22532.504833   -477.550575
PC24    640.308466 -27842.477774  -1514.166277   -534.607434
PC25 -12233.461629 -17503.824197 -17957.868099      7.349078
PC26  10696.526712 -21777.601513  13744.575651    -19.161035
PC27 -11186.836654  11507.545792  22812.297358     33.425107
PC28 -23269.837047  -3180.273347  15069.772205     22.419436
PC29  22627.100213  16147.699776   2479.453840     24.602042
PC30   7554.702660  19690.181346  18262.786821      0.420551
PC32 -19941.890059  17243.319109  -9137.537040   -766.514922
PC33 -16383.711212  -7931.502544  21144.233425   -870.689844
PC34  -8669.812913 -19904.684643 -17549.277089     13.081829
PC35  23906.735409   3510.780808 -13944.331730     34.368659
PC36  11545.623747  18341.924952  17610.555751   -606.873496
PC37 -11800.358681  20585.033071 -14691.937369   -455.783920
PC38 -13675.196144  37611.562540  13576.167525     29.949689
PC39 -10396.129545  22034.696940 -34386.117315     -0.600451
PC40 -25157.237274  24662.556605  23008.439997     -5.720103
PC41 -25744.624753   6228.231148   8832.262271   -157.095055
PC42   2835.974076 -17862.380025  21290.574102   -444.168831
PC43 -22210.706518 -16601.363316  -3214.933707     18.693729
PC44  11010.314726 -11912.562825 -22714.439304     76.323934
PC45  16240.526793  -2179.059847  22591.730935     -7.796581
PC46    522.390958  27740.218623   3200.435443     -5.228878
PE01   6639.356193 -25699.729475 -13085.994433   -543.658210
PE02  -6487.034576  25673.793249  13248.736882    329.739864
PE03   1743.160030  17126.524349 -24089.046301   -608.102847
PE04 -21816.922942 -12495.579578  15622.792562  -1133.123348
PE05 -19821.656911  11780.120355 -18565.767915   -136.112898
PE07  29509.756773    325.805192   2343.105909   -711.945029
PE08  21901.145586  12323.461537 -15654.464772   -612.633599
PE09 -29509.727912   -359.875098  -2210.483134   -687.465022
PE10 -19391.435806 -15280.871868  16309.927796   -482.532621
PE11 -18576.754062  -4525.456949  22587.254272   1864.248092
PE12 -17060.998980 -22852.140643   7936.841866   -213.391569
PE13  18721.965654   5427.251342 -22275.139958    430.670475
PE14  11649.934927  16539.418955  16448.708557     23.050935
PE15  17000.892628  22971.192901  -7720.116648    715.119784
PE18   -133.045559 -19932.011786 -23253.975659   -880.613140
PE19   1382.237565 -16854.344856  24292.732488  -4310.129664
PE21  18579.069434 -22695.114936   3986.119387   -762.486952
PE24 -20672.219247   5377.590372 -20507.625774   -882.184374
PE25 -18698.998892  22551.292380  -4249.610161   -589.772378
PE26   9023.740350 -15966.195210 -23227.993676  -1708.219278
PE27  20842.011466  -6475.330754  20001.456124   -411.475020
PE30  10190.272852  14184.011476  23898.776804   -903.070698
PE31 -10818.942323 -13375.016889 -24073.319939   -505.369823
PE33  -5262.617582 -26848.464568 -11289.853292   -454.542293
PE34   5454.710180  26891.464078  11121.066013     -8.637708
PE36  -9445.539247  15132.664859  23623.586954   -443.489193
PG01 -15627.015590  -2201.087379  21118.383893    270.202582
PG02  17006.819579   4895.727304 -19132.415386   -643.009437
PG03 -19565.045399   6358.676379  16616.733516   -362.567221
PG04 -25821.177423   -360.256450  -6434.935356   -106.179784
PG05  14954.153663   5013.062514 -21559.415849    -99.765541
PG06   6013.746949  25327.546412   5124.603708    486.391057
PG07  -9541.024103  14328.031246 -19671.964853    300.315575
PG08 -25784.374988  -6073.015315  -3803.288285    -88.120195
PG09 -19535.569113   8697.284713 -15860.022256   -285.415752
PG10   9314.375729 -22613.492398  10112.498506     -6.810798
PG11  12134.030553  22764.147998  -6404.105075    -24.053761
PG12  19982.531621  -4817.574151  16497.930682   -290.323425
PG13  20859.361131  13381.819235  -9975.121308    403.003871
PG14 -11640.124437  22368.387945   8167.635272    -96.661288
PG15  26216.219386   3620.449675  -4106.736685    -22.260736
PG16  -9856.812145 -11632.320171 -22005.468903   -525.949170
PG17  -6171.091195  13967.711023  22177.286580    667.167318
PG18   8445.118148 -15764.431623 -19595.093289     20.419845
PG19   6023.719186  15821.011300  20296.862304    221.626135
PG20   5815.647508  17657.432635 -19041.506815    479.717884
PG21 -18372.983359 -10474.802177  17116.465869    158.277719
PG22  -8834.614066 -16192.152994  19595.208824    342.708318
PG23  16207.341395 -20947.199359   -377.845771     -0.880687
PG24  17978.905403   5665.697887  18542.535495    106.001650
PG25  19584.323147 -15687.438320   7977.781037    380.687005
PG26  -2476.985396 -19362.098638 -17954.054555    231.834875
PG27 -18878.848193 -12739.183379 -14206.992323    200.624824
PG28  -4560.867388  20931.393506  16361.602314    330.971417
PG29  20974.333470  -5691.349792 -15368.244662   -558.339059
PG30  -1488.513565  23041.975241 -12809.002658   -537.226472
PG31  -6402.881277 -25239.769882   3610.525769   -196.224412
PG32   1996.276755 -15203.374894  21836.042665   -258.276963
PJ02 -26864.495367  32016.900306  -1341.648830     -6.845540
PJ03 -26017.546030  22406.071632  29548.504197     -2.662046
PJ04 -33687.656600  24745.608231   -880.555934    111.719900
PR01  21826.943858   -217.666247 -13211.176776     15.994077
PR02  23064.388381  -9218.635027   5683.217073    -22.927265
PR03  10155.675540 -12641.120298  19705.468883     65.187204
PR04  -7958.123557  -8741.596125  22625.887283    160.579831
PR05 -21870.707239   -276.719929  13153.556775    100.979705
PR07  -9547.781730  12596.355020 -20007.174242     42.302725
PR08   8123.710812   8750.141788 -22486.671338    -67.559598
PR09 -11861.676091  15032.471963 -16789.992879     81.154761
PR11   2286.083558  20801.082539  14588.934065     25.022812
PR12  10414.910328   3774.233914  23006.904109     21.889117
PR13  11949.135446 -13680.417164  17898.418531    -27.647443
PR14   6395.693637 -24678.708999   1118.362420     24.217090
PR15  -2632.636724 -20236.950584 -15282.333288     93.297291
PR17  -1822.854047 -14852.109932 -20633.120369    567.691880
PR18 -14479.207692 -19421.685286  -8037.358860     46.334056
PR19 -19088.700348 -15127.867607   7557.488304   -206.671290
PR20 -12845.846571    669.076314  22042.884277    -79.906808
PR21   3212.891334  15705.867294  19855.862492   -340.262247
PR22  13982.220684  20035.311665   7348.189271     14.140372
PR24  12698.881728  -1919.032826 -22025.175307    119.380999
EOF
